HAWK-B                  
1 43794U 18099AN  26068.71398351  .00007505  00000+0  33189-3 0  9996
2 43794  97.4099 121.8943 0031356 293.4422  66.3518 15.21533472397909
STARLINK-31950          
1 59863U 24098F   26067.56848266 -.00038303  00000+0 -13814-2 0  9997
2 59863  43.0002 284.4192 0001840  57.7343 302.3687 15.27770245101678
